CCSDS_OMM_VERS = 2.0
CREATION_DATE  = 
ORIGINATOR     = 

OBJECT_NAME    = AQUA
OBJECT_ID      = 2002-022A
CENTER_NAME    = EARTH
REF_FRAME      = TEME
TIME_SYSTEM    = UTC
MEAN_ELEMENT_THEORY = SGP/SGP4

EPOCH          = 2026-03-20T21:38:16.899072
MEAN_MOTION    = 14.62001336
ECCENTRICITY   = .00008118
INCLINATION    = 98.4195
RA_OF_ASC_NODE = 47.4723
ARG_OF_PERICENTER = 113.7632
MEAN_ANOMALY   = 269.5565

EPHEMERIS_TYPE = 0
CLASSIFICATION_TYPE = U
NORAD_CAT_ID   = 27424
ELEMENT_SET_NO = 999
REV_AT_EPOCH   = 27037
BSTAR          = .17033409E-3
MEAN_MOTION_DOT = .805E-5
MEAN_MOTION_DDOT = 0

CCSDS_OMM_VERS = 2.0
CREATION_DATE  = 
ORIGINATOR     = 

OBJECT_NAME    = CZ-4B R/B
OBJECT_ID      = 2002-024C
CENTER_NAME    = EARTH
REF_FRAME      = TEME
TIME_SYSTEM    = UTC
MEAN_ELEMENT_THEORY = SGP/SGP4

EPOCH          = 2026-03-20T22:00:25.577280
MEAN_MOTION    = 14.14549588
ECCENTRICITY   = .00499001
INCLINATION    = 98.8813
RA_OF_ASC_NODE = 133.2658
ARG_OF_PERICENTER = 352.3736
MEAN_ANOMALY   = 181.2523

EPHEMERIS_TYPE = 0
CLASSIFICATION_TYPE = U
NORAD_CAT_ID   = 27432
ELEMENT_SET_NO = 999
REV_AT_EPOCH   = 23082
BSTAR          = .40036623E-4
MEAN_MOTION_DOT = .33E-6
MEAN_MOTION_DDOT = 0

CCSDS_OMM_VERS = 2.0
CREATION_DATE  = 
ORIGINATOR     = 

OBJECT_NAME    = MIDORI II (ADEOS-II)
OBJECT_ID      = 2002-056A
CENTER_NAME    = EARTH
REF_FRAME      = TEME
TIME_SYSTEM    = UTC
MEAN_ELEMENT_THEORY = SGP/SGP4

EPOCH          = 2026-03-20T20:44:46.066848
MEAN_MOTION    = 14.29293116
ECCENTRICITY   = .00011246
INCLINATION    = 98.7789
RA_OF_ASC_NODE = 38.4206
ARG_OF_PERICENTER = 28.4412
MEAN_ANOMALY   = 331.6831

EPHEMERIS_TYPE = 0
CLASSIFICATION_TYPE = U
NORAD_CAT_ID   = 27597
ELEMENT_SET_NO = 999
REV_AT_EPOCH   = 21189
BSTAR          = .11875747E-3
MEAN_MOTION_DOT = .257E-5
MEAN_MOTION_DDOT = 0

CCSDS_OMM_VERS = 2.0
CREATION_DATE  = 
ORIGINATOR     = 

OBJECT_NAME    = H-2A R/B
OBJECT_ID      = 2002-056E
CENTER_NAME    = EARTH
REF_FRAME      = TEME
TIME_SYSTEM    = UTC
MEAN_ELEMENT_THEORY = SGP/SGP4

EPOCH          = 2026-03-20T20:55:42.062304
MEAN_MOTION    = 14.33767641
ECCENTRICITY   = .0071098
INCLINATION    = 98.3223
RA_OF_ASC_NODE = 39.8132
ARG_OF_PERICENTER = 127.6479
MEAN_ANOMALY   = 287.3113

EPHEMERIS_TYPE = 0
CLASSIFICATION_TYPE = U
NORAD_CAT_ID   = 27601
ELEMENT_SET_NO = 999
REV_AT_EPOCH   = 21571
BSTAR          = .95575856E-4
MEAN_MOTION_DOT = .232E-5
MEAN_MOTION_DDOT = 0

CCSDS_OMM_VERS = 2.0
CREATION_DATE  = 
ORIGINATOR     = 

OBJECT_NAME    = CZ-4B R/B
OBJECT_ID      = 2003-049C
CENTER_NAME    = EARTH
REF_FRAME      = TEME
TIME_SYSTEM    = UTC
MEAN_ELEMENT_THEORY = SGP/SGP4

EPOCH          = 2026-03-20T22:28:32.818944
MEAN_MOTION    = 14.55029956
ECCENTRICITY   = .00478007
INCLINATION    = 98.6889
RA_OF_ASC_NODE = 75.2834
ARG_OF_PERICENTER = 196.0799
MEAN_ANOMALY   = 163.8883

EPHEMERIS_TYPE = 0
CLASSIFICATION_TYPE = U
NORAD_CAT_ID   = 28059
ELEMENT_SET_NO = 999
REV_AT_EPOCH   = 18823
BSTAR          = .80768306E-4
MEAN_MOTION_DOT = .302E-5
MEAN_MOTION_DDOT = 0

CCSDS_OMM_VERS = 2.0
CREATION_DATE  = 
ORIGINATOR     = 

OBJECT_NAME    = CZ-2C R/B
OBJECT_ID      = 2004-012C
CENTER_NAME    = EARTH
REF_FRAME      = TEME
TIME_SYSTEM    = UTC
MEAN_ELEMENT_THEORY = SGP/SGP4

EPOCH          = 2026-03-20T03:47:51.059904
MEAN_MOTION    = 15.65689873
ECCENTRICITY   = .0012937
INCLINATION    = 97.7200
RA_OF_ASC_NODE = 145.4513
ARG_OF_PERICENTER = 266.6030
MEAN_ANOMALY   = 93.3749

EPHEMERIS_TYPE = 0
CLASSIFICATION_TYPE = U
NORAD_CAT_ID   = 28222
ELEMENT_SET_NO = 999
REV_AT_EPOCH   = 20591
BSTAR          = .41046893E-3
MEAN_MOTION_DOT = .41551E-3
MEAN_MOTION_DDOT = 0

CCSDS_OMM_VERS = 2.0
CREATION_DATE  = 
ORIGINATOR     = 

OBJECT_NAME    = SL-16 R/B
OBJECT_ID      = 2004-021B
CENTER_NAME    = EARTH
REF_FRAME      = TEME
TIME_SYSTEM    = UTC
MEAN_ELEMENT_THEORY = SGP/SGP4

EPOCH          = 2026-03-20T18:30:17.404992
MEAN_MOTION    = 14.14593505
ECCENTRICITY   = .00045937
INCLINATION    = 70.9998
RA_OF_ASC_NODE = 209.2369
ARG_OF_PERICENTER = 355.9383
MEAN_ANOMALY   = 4.1702

EPHEMERIS_TYPE = 0
CLASSIFICATION_TYPE = U
NORAD_CAT_ID   = 28353
ELEMENT_SET_NO = 999
REV_AT_EPOCH   = 12440
BSTAR          = -.58357574E-4
MEAN_MOTION_DOT = -.16E-5
MEAN_MOTION_DDOT = 0

CCSDS_OMM_VERS = 2.0
CREATION_DATE  = 
ORIGINATOR     = 

OBJECT_NAME    = CZ-4B R/B
OBJECT_ID      = 2004-035C
CENTER_NAME    = EARTH
REF_FRAME      = TEME
TIME_SYSTEM    = UTC
MEAN_ELEMENT_THEORY = SGP/SGP4

EPOCH          = 2026-03-20T23:14:04.608096
MEAN_MOTION    = 15.29243951
ECCENTRICITY   = .00300969
INCLINATION    = 97.3473
RA_OF_ASC_NODE = 114.0756
ARG_OF_PERICENTER = 289.5404
MEAN_ANOMALY   = 70.2587

EPHEMERIS_TYPE = 0
CLASSIFICATION_TYPE = U
NORAD_CAT_ID   = 28415
ELEMENT_SET_NO = 999
REV_AT_EPOCH   = 18163
BSTAR          = .26335189E-3
MEAN_MOTION_DOT = .7497E-4
MEAN_MOTION_DDOT = 0

CCSDS_OMM_VERS = 2.0
CREATION_DATE  = 
ORIGINATOR     = 

OBJECT_NAME    = CZ-2C R/B
OBJECT_ID      = 2004-046B
CENTER_NAME    = EARTH
REF_FRAME      = TEME
TIME_SYSTEM    = UTC
MEAN_ELEMENT_THEORY = SGP/SGP4

EPOCH          = 2026-03-20T16:54:32.804640
MEAN_MOTION    = 14.26995708
ECCENTRICITY   = .01403975
INCLINATION    = 98.1980
RA_OF_ASC_NODE = 354.0025
ARG_OF_PERICENTER = 122.0427
MEAN_ANOMALY   = 239.4481

EPHEMERIS_TYPE = 0
CLASSIFICATION_TYPE = U
NORAD_CAT_ID   = 28480
ELEMENT_SET_NO = 999
REV_AT_EPOCH   = 11007
BSTAR          = .60703438E-4
MEAN_MOTION_DOT = .124E-5
MEAN_MOTION_DDOT = 0

CCSDS_OMM_VERS = 2.0
CREATION_DATE  = 
ORIGINATOR     = 

OBJECT_NAME    = ARIANE 5 R/B
OBJECT_ID      = 2004-049H
CENTER_NAME    = EARTH
REF_FRAME      = TEME
TIME_SYSTEM    = UTC
MEAN_ELEMENT_THEORY = SGP/SGP4

EPOCH          = 2026-03-20T22:48:38.716704
MEAN_MOTION    = 14.85284921
ECCENTRICITY   = .00832034
INCLINATION    = 98.2643
RA_OF_ASC_NODE = 248.8303
ARG_OF_PERICENTER = 315.1907
MEAN_ANOMALY   = 44.2607

EPHEMERIS_TYPE = 0
CLASSIFICATION_TYPE = U
NORAD_CAT_ID   = 28499
ELEMENT_SET_NO = 999
REV_AT_EPOCH   = 14746
BSTAR          = .76636825E-4
MEAN_MOTION_DOT = .634E-5
MEAN_MOTION_DDOT = 0

CCSDS_OMM_VERS = 2.0
CREATION_DATE  = 
ORIGINATOR     = 

OBJECT_NAME    = CZ-2D R/B
OBJECT_ID      = 2005-024B
CENTER_NAME    = EARTH
REF_FRAME      = TEME
TIME_SYSTEM    = UTC
MEAN_ELEMENT_THEORY = SGP/SGP4

EPOCH          = 2026-03-20T06:56:07.828800
MEAN_MOTION    = 15.61045673
ECCENTRICITY   = .0003983
INCLINATION    = 97.3582
RA_OF_ASC_NODE = 94.8309
ARG_OF_PERICENTER = 16.3856
MEAN_ANOMALY   = 343.7530

EPHEMERIS_TYPE = 0
CLASSIFICATION_TYPE = U
NORAD_CAT_ID   = 28738
ELEMENT_SET_NO = 999
REV_AT_EPOCH   = 14143
BSTAR          = .3545E-3
MEAN_MOTION_DOT = .29756E-3
MEAN_MOTION_DDOT = 0

CCSDS_OMM_VERS = 2.0
CREATION_DATE  = 
ORIGINATOR     = 

OBJECT_NAME    = ALOS (DAICHI)
OBJECT_ID      = 2006-002A
CENTER_NAME    = EARTH
REF_FRAME      = TEME
TIME_SYSTEM    = UTC
MEAN_ELEMENT_THEORY = SGP/SGP4

EPOCH          = 2026-03-20T20:55:08.382720
MEAN_MOTION    = 14.69842990
ECCENTRICITY   = .00007021
INCLINATION    = 98.1238
RA_OF_ASC_NODE = 35.7724
ARG_OF_PERICENTER = 85.8225
MEAN_ANOMALY   = 274.3061

EPHEMERIS_TYPE = 0
CLASSIFICATION_TYPE = U
NORAD_CAT_ID   = 28931
ELEMENT_SET_NO = 999
REV_AT_EPOCH   = 7512
BSTAR          = .20029749E-3
MEAN_MOTION_DOT = .1147E-4
MEAN_MOTION_DDOT = 0

